# Reportes METAR y sus Significados

A continuación se presentan los 8 reportes METAR ordenados de forma intercalada entre aeropuertos de Chile y del resto del mundo, junto con el desglose detallado de su significado técnico.

---

### 1. Santiago, Chile (SCEL) - Niebla Matinal
*   **METAR:** `SCEL 121000Z 00000KT 0400 R17L/0600N FG VV002 04/04 Q1018 NOSIG`
*   **Significado:** Viento en calma ($00000	ext{KT}$). Visibilidad horizontal muy reducida a 400 metros por niebla densa (`FG`). El alcance visual en la pista 17L (`R17L`) es de 600 metros sin cambios significativos (`N`). Techo vertical (`VV`) de solo 200 pies. Temperatura de $4^\circ	ext{C}$, punto de rocío de $4^\circ	ext{C}$ (humedad saturada al $100\%$) y presión al nivel del mar (`QNH`) de 1018 hectopascales. Sin cambios significativos previstos en las próximas dos horas (`NOSIG`).

### 2. Guadalajara, México (MMGL) - Nubes Altas
*   **METAR:** `MMGL 100344Z 26005KT 8SM BKN300 21/04 A3020`
*   **Significado:** Viento del oeste-suroeste ($260^\circ$) a 5 nudos. Visibilidad de 8 millas estatutas (aproximadamente 13 km). Cielo mayormente cubierto o nublado fragmentado (`BKN`) por nubes altas a 30,000 pies. Temperatura de $21^\circ	ext{C}$, punto de rocío de $4^\circ	ext{C}$ y reglaje altimétrico (`Altimeter`) de 30.20 pulgadas de mercurio.

### 3. Antofagasta, Chile (SCFA) - Vaguada Costera / Camanchaca
*   **METAR:** `SCFA 151200Z 19008KT 3000 BR OVC006 14/13 Q1014`
*   **Significado:** Viento del sur-suroeste ($190^\circ$) a 8 nudos. Visibilidad reducida a 3 kilómetros debido a neblina (`BR`). Cielo completamente cubierto (`OVC`) por una densa capa de estratos bajos a 600 pies (la clásica camanchaca costera). Temperatura de $14^\circ	ext{C}$, punto de rocío de $13^\circ	ext{C}$ y presión al nivel del mar de 1014 hectopascales.

### 4. Los Ángeles, EE. UU. (KLAX) - Buen Clima Costero
*   **METAR:** `KLAX 100353Z 28008KT 10SM FEW015 16/14 A2994`
*   **Significado:** Viento del oeste ($280^\circ$) a 8 nudos. Excelente visibilidad de 10 millas estatutas o más. Escasas nubes (`FEW`) a una altura baja de 1,500 pies. Temperatura de $16^\circ	ext{C}$, punto de rocío de $14^\circ	ext{C}$ (reflejando la influencia de la humedad marina) y reglaje altimétrico de 29.94 pulgadas de mercurio.

### 5. Concepción, Chile (SCIE) - Sistema Frontal
*   **METAR:** `SCIE 221800Z 32018G28KT 5000 -RA BR BKN012 OVC030 11/10 Q1004`
*   **Significado:** Viento fuerte del noroeste ($320^\circ$) a 18 nudos con rachas (gusts) de hasta 28 nudos (`32018G28KT`). Visibilidad moderada de 5 kilómetros bajo lluvia débil (`-RA`) y neblina (`BR`). Cielo mayormente cubierto con nubosidad fragmentada (`BKN`) a 1,200 pies y una segunda capa completamente cubierta (`OVC`) a 3,000 pies. Temperatura de $11^\circ	ext{C}$, punto de rocío de $10^\circ	ext{C}$ y baja presión atmosférica de 1004 hectopascales.

### 6. Brasilia, Brasil (SBBR) - Nubosidad Dispersa
*   **METAR:** `SBBR 100400Z 14004KT 9999 SCT015 SCT040 20/19 Q1020`
*   **Significado:** Viento del sureste ($140^\circ$) a 4 nudos. Visibilidad horizontal de 10 kilómetros o más (`9999`). Nubes dispersas (`SCT`) en dos capas: la primera a 1,500 pies y la segunda a 4,000 pies. Temperatura de $20^\circ	ext{C}$, punto de rocío de $19^\circ	ext{C}$ y presión al nivel del mar de 1020 hectopascales.

### 7. Santiago, Chile (SCEL) - Tarde de Verano
*   **METAR:** `SCEL 202100Z 19014KT CAVOK 28/08 Q1013`
*   **Significado:** Viento sostenido del sur ($190^\circ$) a 14 nudos (condición típica del valle central al final de la tarde). Condición `CAVOK` (*Ceiling and Visibility OK*), lo que indica visibilidad superior a 10 km, ausencia de nubes por debajo de los 5,000 pies y sin fenómenos meteorológicos significativos. Temperatura cálida de $28^\circ	ext{C}$, punto de rocío bajo de $8^\circ	ext{C}$ y presión atmosférica de 1013 hectopascales.

### 8. Buenos Aires / Ezeiza, Argentina (SAEZ) - Buenas Condiciones
*   **METAR:** `SAEZ 100400Z 13004KT CAVOK 17/14 Q1019`
*   **Significado:** Viento del sureste ($130^\circ$) a 4 nudos. Condición `CAVOK`, que representa visibilidad excelente (mayor a 10 km), sin nubes de importancia operativa ni fenómenos meteorológicos en el área. Temperatura agradable de $17^\circ	ext{C}$, punto de rocío de $14^\circ	ext{C}$ y presión atmosférica de 1019 hectopascales.
